[{"OBJECT_NAME":"CINEMA-3 (KHUSAT-2)","OBJECT_ID":"2013-066L","EPOCH":"2026-03-28T17:24:50.681376","MEAN_MOTION":14.78060061,"ECCENTRICITY":0.0091596,"INCLINATION":97.8427,"RA_OF_ASC_NODE":2.0239,"ARG_OF_PERICENTER":112.6457,"MEAN_ANOMALY":248.4473,"EPHEMERIS_TYPE":0,"CLASSIFICATION_TYPE":"U","NORAD_CAT_ID":39426,"ELEMENT_SET_NO":999,"REV_AT_EPOCH":66256,"BSTAR":0.00022088,"MEAN_MOTION_DOT":1.657e-5,"MEAN_MOTION_DDOT":0},{"OBJECT_NAME":"TRITON-1","OBJECT_ID":"2013-066M","EPOCH":"2026-03-28T23:47:18.275136","MEAN_MOTION":14.81299661,"ECCENTRICITY":0.00916186,"INCLINATION":97.8285,"RA_OF_ASC_NODE":359.6353,"ARG_OF_PERICENTER":134.9371,"MEAN_ANOMALY":225.9321,"EPHEMERIS_TYPE":0,"CLASSIFICATION_TYPE":"U","NORAD_CAT_ID":39427,"ELEMENT_SET_NO":999,"REV_AT_EPOCH":66221,"BSTAR":0.00043269767,"MEAN_MOTION_DOT":3.574e-5,"MEAN_MOTION_DDOT":0},{"OBJECT_NAME":"DELFI-N3XT","OBJECT_ID":"2013-066N","EPOCH":"2026-03-28T18:30:21.317184","MEAN_MOTION":14.93948801,"ECCENTRICITY":0.00774872,"INCLINATION":97.8339,"RA_OF_ASC_NODE":8.2225,"ARG_OF_PERICENTER":113.6358,"MEAN_ANOMALY":247.302,"EPHEMERIS_TYPE":0,"CLASSIFICATION_TYPE":"U","NORAD_CAT_ID":39428,"ELEMENT_SET_NO":999,"REV_AT_EPOCH":66261,"BSTAR":0.00073998092,"MEAN_MOTION_DOT":8.303e-5,"MEAN_MOTION_DDOT":0},{"OBJECT_NAME":"GOMX-1","OBJECT_ID":"2013-066Q","EPOCH":"2026-03-28T19:50:40.985664","MEAN_MOTION":14.6916857,"ECCENTRICITY":0.0128775,"INCLINATION":97.6558,"RA_OF_ASC_NODE":293.3385,"ARG_OF_PERICENTER":336.2393,"MEAN_ANOMALY":23.2901,"EPHEMERIS_TYPE":0,"CLASSIFICATION_TYPE":"U","NORAD_CAT_ID":39430,"ELEMENT_SET_NO":999,"REV_AT_EPOCH":65811,"BSTAR":0.00028544158,"MEAN_MOTION_DOT":1.854e-5,"MEAN_MOTION_DDOT":0},{"OBJECT_NAME":"BRITE-PL1 (LEM)","OBJECT_ID":"2013-066R","EPOCH":"2026-03-28T20:56:03.896448","MEAN_MOTION":14.51240446,"ECCENTRICITY":0.01890531,"INCLINATION":97.7855,"RA_OF_ASC_NODE":206.0151,"ARG_OF_PERICENTER":260.9383,"MEAN_ANOMALY":97.0378,"EPHEMERIS_TYPE":0,"CLASSIFICATION_TYPE":"U","NORAD_CAT_ID":39431,"ELEMENT_SET_NO":999,"REV_AT_EPOCH":65228,"BSTAR":0.00016572317,"MEAN_MOTION_DOT":7.79e-6,"MEAN_MOTION_DDOT":0},{"OBJECT_NAME":"ICUBE-1","OBJECT_ID":"2013-066S","EPOCH":"2026-03-28T22:25:19.519680","MEAN_MOTION":15.23717824,"ECCENTRICITY":0.00149377,"INCLINATION":97.5661,"RA_OF_ASC_NODE":72.7486,"ARG_OF_PERICENTER":250.6774,"MEAN_ANOMALY":109.2847,"EPHEMERIS_TYPE":0,"CLASSIFICATION_TYPE":"U","NORAD_CAT_ID":39432,"ELEMENT_SET_NO":999,"REV_AT_EPOCH":67218,"BSTAR":0.00069581087,"MEAN_MOTION_DOT":0.00016713,"MEAN_MOTION_DDOT":0},{"OBJECT_NAME":"VELOX-PII","OBJECT_ID":"2013-066Y","EPOCH":"2026-03-28T19:17:26.680992","MEAN_MOTION":14.92621077,"ECCENTRICITY":0.00517589,"INCLINATION":97.8667,"RA_OF_ASC_NODE":39.1425,"ARG_OF_PERICENTER":248.7282,"MEAN_ANOMALY":110.8406,"EPHEMERIS_TYPE":0,"CLASSIFICATION_TYPE":"U","NORAD_CAT_ID":39438,"ELEMENT_SET_NO":999,"REV_AT_EPOCH":66584,"BSTAR":0.00040250413,"MEAN_MOTION_DOT":4.192e-5,"MEAN_MOTION_DDOT":0},{"OBJECT_NAME":"CUBEBUG-2 (LO-74)","OBJECT_ID":"2013-066AA","EPOCH":"2026-03-28T19:08:27.533760","MEAN_MOTION":14.9316643,"ECCENTRICITY":0.00566873,"INCLINATION":97.8832,"RA_OF_ASC_NODE":36.506,"ARG_OF_PERICENTER":294.8165,"MEAN_ANOMALY":64.7165,"EPHEMERIS_TYPE":0,"CLASSIFICATION_TYPE":"U","NORAD_CAT_ID":39440,"ELEMENT_SET_NO":999,"REV_AT_EPOCH":66499,"BSTAR":0.00055583289,"MEAN_MOTION_DOT":5.926e-5,"MEAN_MOTION_DDOT":0},{"OBJECT_NAME":"NEE-02 KRYSAOR","OBJECT_ID":"2013-066AB","EPOCH":"2026-03-28T18:25:31.973088","MEAN_MOTION":14.86287699,"ECCENTRICITY":0.00659296,"INCLINATION":97.8832,"RA_OF_ASC_NODE":27.6007,"ARG_OF_PERICENTER":334.7799,"MEAN_ANOMALY":25.0201,"EPHEMERIS_TYPE":0,"CLASSIFICATION_TYPE":"U","NORAD_CAT_ID":39441,"ELEMENT_SET_NO":999,"REV_AT_EPOCH":66425,"BSTAR":0.00040702494,"MEAN_MOTION_DOT":3.667e-5,"MEAN_MOTION_DDOT":0},{"OBJECT_NAME":"FUNCUBE-1 (AO-73)","OBJECT_ID":"2013-066AE","EPOCH":"2026-03-28T21:11:26.755584","MEAN_MOTION":15.08242424,"ECCENTRICITY":0.00388869,"INCLINATION":97.8202,"RA_OF_ASC_NODE":57.7553,"ARG_OF_PERICENTER":115.5834,"MEAN_ANOMALY":244.9421,"EPHEMERIS_TYPE":0,"CLASSIFICATION_TYPE":"U","NORAD_CAT_ID":39444,"ELEMENT_SET_NO":999,"REV_AT_EPOCH":66755,"BSTAR":0.00061844526,"MEAN_MOTION_DOT":9.685e-5,"MEAN_MOTION_DDOT":0},{"OBJECT_NAME":"HINCUBE","OBJECT_ID":"2013-066AF","EPOCH":"2026-03-28T20:23:38.238432","MEAN_MOTION":15.07108902,"ECCENTRICITY":0.00353039,"INCLINATION":97.79,"RA_OF_ASC_NODE":55.2693,"ARG_OF_PERICENTER":122.0741,"MEAN_ANOMALY":238.3923,"EPHEMERIS_TYPE":0,"CLASSIFICATION_TYPE":"U","NORAD_CAT_ID":39445,"ELEMENT_SET_NO":999,"REV_AT_EPOCH":66742,"BSTAR":0.00067606966,"MEAN_MOTION_DOT":0.00010239,"MEAN_MOTION_DDOT":0},{"OBJECT_NAME":"UWE-3","OBJECT_ID":"2013-066AG","EPOCH":"2026-03-28T20:32:03.082272","MEAN_MOTION":14.96371134,"ECCENTRICITY":0.00484132,"INCLINATION":97.8615,"RA_OF_ASC_NODE":43.468,"ARG_OF_PERICENTER":226.6001,"MEAN_ANOMALY":133.1185,"EPHEMERIS_TYPE":0,"CLASSIFICATION_TYPE":"U","NORAD_CAT_ID":39446,"ELEMENT_SET_NO":999,"REV_AT_EPOCH":66556,"BSTAR":0.00037941568,"MEAN_MOTION_DOT":4.336e-5,"MEAN_MOTION_DDOT":0},{"OBJECT_NAME":"SMDC ONE 2.4","OBJECT_ID":"2013-072H","EPOCH":"2026-03-28T19:35:22.538112","MEAN_MOTION":15.16389478,"ECCENTRICITY":0.01364505,"INCLINATION":120.4883,"RA_OF_ASC_NODE":42.1881,"ARG_OF_PERICENTER":289.8813,"MEAN_ANOMALY":68.7601,"EPHEMERIS_TYPE":0,"CLASSIFICATION_TYPE":"U","NORAD_CAT_ID":39469,"ELEMENT_SET_NO":999,"REV_AT_EPOCH":10563,"BSTAR":0.0007696065,"MEAN_MOTION_DOT":0.00018831,"MEAN_MOTION_DDOT":0},{"OBJECT_NAME":"CP8 (IPEX)","OBJECT_ID":"2013-072K","EPOCH":"2026-03-28T14:14:27.441888","MEAN_MOTION":15.06850226,"ECCENTRICITY":0.0157676,"INCLINATION":120.4642,"RA_OF_ASC_NODE":352.5725,"ARG_OF_PERICENTER":273.8431,"MEAN_ANOMALY":84.4622,"EPHEMERIS_TYPE":0,"CLASSIFICATION_TYPE":"U","NORAD_CAT_ID":39471,"ELEMENT_SET_NO":999,"REV_AT_EPOCH":10308,"BSTAR":0.00058031,"MEAN_MOTION_DOT":0.00011245,"MEAN_MOTION_DDOT":0},{"OBJECT_NAME":"COSMOS 2488 (RODNIK-S 7)","OBJECT_ID":"2013-076A","EPOCH":"2026-03-28T20:43:49.547424","MEAN_MOTION":12.42902595,"ECCENTRICITY":0.00184114,"INCLINATION":82.4842,"RA_OF_ASC_NODE":218.7297,"ARG_OF_PERICENTER":269.5499,"MEAN_ANOMALY":90.3471,"EPHEMERIS_TYPE":0,"CLASSIFICATION_TYPE":"U","NORAD_CAT_ID":39483,"ELEMENT_SET_NO":999,"REV_AT_EPOCH":55591,"BSTAR":-6.4800637e-5,"MEAN_MOTION_DOT":1.0e-8,"MEAN_MOTION_DDOT":0},{"OBJECT_NAME":"COSMOS 2489 (RODNIK-S 8)","OBJECT_ID":"2013-076B","EPOCH":"2026-03-28T22:01:39.374976","MEAN_MOTION":12.42877507,"ECCENTRICITY":0.00202301,"INCLINATION":82.4877,"RA_OF_ASC_NODE":220.0486,"ARG_OF_PERICENTER":269.4346,"MEAN_ANOMALY":90.4416,"EPHEMERIS_TYPE":0,"CLASSIFICATION_TYPE":"U","NORAD_CAT_ID":39484,"ELEMENT_SET_NO":999,"REV_AT_EPOCH":55597,"BSTAR":-0.0003114477,"MEAN_MOTION_DOT":-3.3e-7,"MEAN_MOTION_DDOT":0}]
