CINEMA-3 (KHUSAT-2)     
1 39426U 13066L   26087.72558659  .00001657  00000+0  22088-3 0  9991
2 39426  97.8427   2.0239 0091596 112.6457 248.4473 14.78060061662565
TRITON-1                
1 39427U 13066M   26087.99118374  .00003574  00000+0  43270-3 0  9993
2 39427  97.8285 359.6353 0091618 134.9371 225.9321 14.81299661662211
DELFI-N3XT              
1 39428U 13066N   26087.77108006  .00008303  00000+0  73998-3 0  9996
2 39428  97.8339   8.2225 0077487 113.6358 247.3020 14.93948801662612
GOMX-1                  
1 39430U 13066Q   26087.82686326  .00001854  00000+0  28544-3 0  9992
2 39430  97.6558 293.3385 0128775 336.2393  23.2901 14.69168570658118
BRITE-PL1 (LEM)         
1 39431U 13066R   26087.87226732  .00000779  00000+0  16572-3 0  9992
2 39431  97.7855 206.0151 0189053 260.9383  97.0378 14.51240446652283
ICUBE-1                 
1 39432U 13066S   26087.93425370  .00016713  00000+0  69581-3 0  9992
2 39432  97.5661  72.7486 0014937 250.6774 109.2847 15.23717824672181
VELOX-PII               
1 39438U 13066Y   26087.80378103  .00004192  00000+0  40250-3 0  9995
2 39438  97.8667  39.1425 0051758 248.7282 110.8406 14.92621077665843
CUBEBUG-2 (LO-74)       
1 39440U 13066AA  26087.79754090  .00005926  00000+0  55583-3 0  9990
2 39440  97.8832  36.5060 0056687 294.8165  64.7165 14.93166430664996
NEE-02 KRYSAOR          
1 39441U 13066AB  26087.76773117  .00003667  00000+0  40702-3 0  9996
2 39441  97.8832  27.6007 0065929 334.7799  25.0201 14.86287699664258
FUNCUBE-1 (AO-73)       
1 39444U 13066AE  26087.88294856  .00009685  00000+0  61845-3 0  9997
2 39444  97.8202  57.7553 0038886 115.5834 244.9421 15.08242424667553
HINCUBE                 
1 39445U 13066AF  26087.84974813  .00010239  00000+0  67607-3 0  9991
2 39445  97.7900  55.2693 0035303 122.0741 238.3923 15.07108902667428
UWE-3                   
1 39446U 13066AG  26087.85559123  .00004336  00000+0  37942-3 0  9996
2 39446  97.8615  43.4680 0048413 226.6001 133.1185 14.96371134665565
SMDC ONE 2.4            
1 39469U 13072H   26087.81623308  .00018831  00000+0  76961-3 0  9990
2 39469 120.4883  42.1881 0136450 289.8813  68.7601 15.16389478105636
CP8 (IPEX)              
1 39471U 13072K   26087.59337317  .00011245  00000+0  58031-3 0  9990
2 39471 120.4642 352.5725 0157676 273.8431  84.4622 15.06850226103087
COSMOS 2488 (RODNIK-S 7)
1 39483U 13076A   26087.86376791  .00000001  00000+0 -64801-4 0  9998
2 39483  82.4842 218.7297 0018411 269.5499  90.3471 12.42902595555910
COSMOS 2489 (RODNIK-S 8)
1 39484U 13076B   26087.91781684 -.00000033  00000+0 -31145-3 0  9996
2 39484  82.4877 220.0486 0020230 269.4346  90.4416 12.42877507555977
